{"type": "FeatureCollection", "features": [ {"type": "Feature", "properties": {"norad_id": 33153, "name": "INTELSAT 25 (IS-25)", "group": "intelsat", "lat": -1.1742470737982922, "lon": 50.332303240135545, "alt_km": 35802.632499306535, "timestamp": "2025-12-18T23:35:48.715001+00:00", "meta": {"OBJECT_NAME": "INTELSAT 25 (IS-25)", "OBJECT_ID": "2008-034A", "EPOCH": "2025-12-18T11:25:59.877408", "MEAN_MOTION": 1.00270664, "ECCENTRICITY": 0.00047951, "INCLINATION": 2.2417, "RA_OF_ASC_NODE": 82.5886, "ARG_OF_PERICENTER": 185.6311, "MEAN_ANOMALY": 319.1164, "EPHEMERIS_TYPE": 0, "CLASSIFICATION_TYPE": "U", "NORAD_CAT_ID": 33153, "ELEMENT_SET_NO": 999, "REV_AT_EPOCH": 6388, "BSTAR": 0, "MEAN_MOTION_DOT": -2.01e-06, "MEAN_MOTION_DDOT": 0}, "tle": {"line1": "1 33153U 08034A   25352.47638747 -.00000201  00000+0  00000+0 0  9995", "line2": "2 33153   2.2417  82.5886 0004795 185.6311 319.1164  1.00270664 63886"}}, "geometry": {"type": "Point", "coordinates": [50.332303240135545, -1.1742470737982922]}}, {"type": "Feature", "properties": {"norad_id": 33376, "name": "GALAXY 19 (G-19)", "group": "intelsat", "lat": 0.015131872044548286, "lon": -15.191389016143626, "alt_km": 35783.18134378034, "timestamp": "2025-12-18T23:35:48.715013+00:00", "meta": {"OBJECT_NAME": "GALAXY 19 (G-19)", "OBJECT_ID": "2008-045A", "EPOCH": "2025-12-18T14:32:41.994240", "MEAN_MOTION": 1.00271735, "ECCENTRICITY": 0.00025085, "INCLINATION": 0.0188, "RA_OF_ASC_NODE": 287.386, "ARG_OF_PERICENTER": 343.4511, "MEAN_ANOMALY": 297.8054, "EPHEMERIS_TYPE": 0, "CLASSIFICATION_TYPE": "U", "NORAD_CAT_ID": 33376, "ELEMENT_SET_NO": 999, "REV_AT_EPOCH": 6309, "BSTAR": 0, "MEAN_MOTION_DOT": -1.14e-06, "MEAN_MOTION_DDOT": 0}, "tle": {"line1": "1 33376U 08045A   25352.60604160 -.00000114  00000+0  00000+0 0  9994", "line2": "2 33376   0.0188 287.3860 0002508 343.4511 297.8054  1.00271735 63090"}}, "geometry": {"type": "Point", "coordinates": [-15.191389016143626, 0.015131872044548286]}}, {"type": "Feature", "properties": {"norad_id": 35493, "name": "FM-5", "group": "intelsat", "lat": 0.020952732240639784, "lon": -4.36973892642168, "alt_km": 35790.7743401345, "timestamp": "2025-12-18T23:35:48.715026+00:00", "meta": {"OBJECT_NAME": "FM-5", "OBJECT_ID": "2009-034A", "EPOCH": "2025-12-18T14:35:49.196256", "MEAN_MOTION": 1.0027022, "ECCENTRICITY": 0.00010746, "INCLINATION": 0.0192, "RA_OF_ASC_NODE": 293.626, "ARG_OF_PERICENTER": 221.9079, "MEAN_ANOMALY": 64.7465, "EPHEMERIS_TYPE": 0, "CLASSIFICATION_TYPE": "U", "NORAD_CAT_ID": 35493, "ELEMENT_SET_NO": 999, "REV_AT_EPOCH": 4483, "BSTAR": 0, "MEAN_MOTION_DOT": -1.75e-06, "MEAN_MOTION_DDOT": 0}, "tle": {"line1": "1 35493U 09034A   25352.60820829 -.00000175  00000+0  00000+0 0  9994", "line2": "2 35493   0.0192 293.6260 0001074 221.9079  64.7465  1.00270220 44833"}}, "geometry": {"type": "Point", "coordinates": [-4.36973892642168, 0.020952732240639784]}}, {"type": "Feature", "properties": {"norad_id": 36097, "name": "INTELSAT 14 (IS-14)", "group": "intelsat", "lat": 0.031032845835560357, "lon": 36.81659038994606, "alt_km": 35791.19474137425, "timestamp": "2025-12-18T23:35:48.715038+00:00", "meta": {"OBJECT_NAME": "INTELSAT 14 (IS-14)", "OBJECT_ID": "2009-064A", "EPOCH": "2025-12-18T09:39:23.827968", "MEAN_MOTION": 1.00271786, "ECCENTRICITY": 0.00024326, "INCLINATION": 0.0111, "RA_OF_ASC_NODE": 333.9725, "ARG_OF_PERICENTER": 303.5826, "MEAN_ANOMALY": 269.5724, "EPHEMERIS_TYPE": 0, "CLASSIFICATION_TYPE": "U", "NORAD_CAT_ID": 36097, "ELEMENT_SET_NO": 999, "REV_AT_EPOCH": 5879, "BSTAR": 0, "MEAN_MOTION_DOT": -2.48e-06, "MEAN_MOTION_DDOT": 0}, "tle": {"line1": "1 36097U 09064A   25352.40235912 -.00000248  00000+0  00000+0 0  9990", "line2": "2 36097   0.0111 333.9725 0002432 303.5826 269.5724  1.00271786 58796"}}, "geometry": {"type": "Point", "coordinates": [36.81659038994606, 0.031032845835560357]}}, {"type": "Feature", "properties": {"norad_id": 36106, "name": "INTELSAT 15 (IS-15)", "group": "intelsat", "lat": 0.0036847823371598063, "lon": 166.9154584514087, "alt_km": 35789.224832565975, "timestamp": "2025-12-18T23:35:48.715050+00:00", "meta": {"OBJECT_NAME": "INTELSAT 15 (IS-15)", "OBJECT_ID": "2009-067A", "EPOCH": "2025-12-18T13:42:01.846944", "MEAN_MOTION": 1.00272283, "ECCENTRICITY": 0.00021403, "INCLINATION": 0.0172, "RA_OF_ASC_NODE": 353.6231, "ARG_OF_PERICENTER": 284.4963, "MEAN_ANOMALY": 99.978, "EPHEMERIS_TYPE": 0, "CLASSIFICATION_TYPE": "U", "NORAD_CAT_ID": 36106, "ELEMENT_SET_NO": 999, "REV_AT_EPOCH": 3941, "BSTAR": 0, "MEAN_MOTION_DOT": -1.6e-06, "MEAN_MOTION_DDOT": 0}, "tle": {"line1": "1 36106U 09067A   25352.57085471 -.00000160  00000+0  00000+0 0  9998", "line2": "2 36106   0.0172 353.6231 0002140 284.4963  99.9780  1.00272283 39418"}}, "geometry": {"type": "Point", "coordinates": [166.9154584514087, 0.0036847823371598063]}}, {"type": "Feature", "properties": {"norad_id": 36131, "name": "DIRECTV 12", "group": "intelsat", "lat": -0.008070296011155767, "lon": -20.930098029085727, "alt_km": 35783.81888598282, "timestamp": "2025-12-18T23:35:48.715062+00:00", "meta": {"OBJECT_NAME": "DIRECTV 12", "OBJECT_ID": "2009-075A", "EPOCH": "2025-12-18T13:00:54.580896", "MEAN_MOTION": 1.00273237, "ECCENTRICITY": 4.543e-05, "INCLINATION": 0.032, "RA_OF_ASC_NODE": 123.7074, "ARG_OF_PERICENTER": 227.1544, "MEAN_ANOMALY": 189.0579, "EPHEMERIS_TYPE": 0, "CLASSIFICATION_TYPE": "U", "NORAD_CAT_ID": 36131, "ELEMENT_SET_NO": 999, "REV_AT_EPOCH": 4474, "BSTAR": 0, "MEAN_MOTION_DOT": -7.9e-07, "MEAN_MOTION_DDOT": 0}, "tle": {"line1": "1 36131U 09075A   25352.54229839 -.00000079  00000+0  00000+0 0  9999", "line2": "2 36131   0.0320 123.7074 0000454 227.1544 189.0579  1.00273237 44746"}}, "geometry": {"type": "Point", "coordinates": [-20.930098029085727, -0.008070296011155767]}}, {"type": "Feature", "properties": {"norad_id": 36397, "name": "INTELSAT 16 (IS-16)", "group": "intelsat", "lat": 0.011395549398026629, "lon": 5.608927606896972, "alt_km": 35786.91401286194, "timestamp": "2025-12-18T23:35:48.715074+00:00", "meta": {"OBJECT_NAME": "INTELSAT 16 (IS-16)", "OBJECT_ID": "2010-006A", "EPOCH": "2025-12-18T12:16:25.698720", "MEAN_MOTION": 1.00272428, "ECCENTRICITY": 0.00018252, "INCLINATION": 0.0065, "RA_OF_ASC_NODE": 343.5939, "ARG_OF_PERICENTER": 284.841, "MEAN_ANOMALY": 286.8526, "EPHEMERIS_TYPE": 0, "CLASSIFICATION_TYPE": "U", "NORAD_CAT_ID": 36397, "ELEMENT_SET_NO": 999, "REV_AT_EPOCH": 5784, "BSTAR": 0, "MEAN_MOTION_DOT": -2.2e-06, "MEAN_MOTION_DDOT": 0}, "tle": {"line1": "1 36397U 10006A   25352.51140855 -.00000220  00000+0  00000+0 0  9994", "line2": "2 36397   0.0065 343.5939 0001825 284.8410 286.8526  1.00272428 57847"}}, "geometry": {"type": "Point", "coordinates": [5.608927606896972, 0.011395549398026629]}}, {"type": "Feature", "properties": {"norad_id": 37185, "name": "XM-5", "group": "intelsat", "lat": 0.039419075254346486, "lon": -33.40761998788021, "alt_km": 35793.61263013982, "timestamp": "2025-12-18T23:35:48.715086+00:00", "meta": {"OBJECT_NAME": "XM-5", "OBJECT_ID": "2010-053A", "EPOCH": "2025-12-18T14:27:34.983936", "MEAN_MOTION": 1.00273692, "ECCENTRICITY": 0.00019231, "INCLINATION": 0.0631, "RA_OF_ASC_NODE": 271.8584, "ARG_OF_PERICENTER": 235.4563, "MEAN_ANOMALY": 41.8538, "EPHEMERIS_TYPE": 0, "CLASSIFICATION_TYPE": "U", "NORAD_CAT_ID": 37185, "ELEMENT_SET_NO": 999, "REV_AT_EPOCH": 5567, "BSTAR": 0, "MEAN_MOTION_DOT": 2e-08, "MEAN_MOTION_DDOT": 0}, "tle": {"line1": "1 37185U 10053A   25352.60248824  .00000002  00000+0  00000+0 0  9994", "line2": "2 37185   0.0631 271.8584 0001923 235.4563  41.8538  1.00273692 55676"}}, "geometry": {"type": "Point", "coordinates": [-33.40761998788021, 0.039419075254346486]}}, {"type": "Feature", "properties": {"norad_id": 37238, "name": "INTELSAT 17 (IS-17)", "group": "intelsat", "lat": 0.02923949481461153, "lon": 147.73198175983683, "alt_km": 35794.89120820187, "timestamp": "2025-12-18T23:35:48.715098+00:00", "meta": {"OBJECT_NAME": "INTELSAT 17 (IS-17)", "OBJECT_ID": "2010-065B", "EPOCH": "2025-12-18T13:36:32.372640", "MEAN_MOTION": 1.00271149, "ECCENTRICITY": 0.00027365, "INCLINATION": 0.0241, "RA_OF_ASC_NODE": 60.7923, "ARG_OF_PERICENTER": 225.4994, "MEAN_ANOMALY": 71.245, "EPHEMERIS_TYPE": 0, "CLASSIFICATION_TYPE": "U", "NORAD_CAT_ID": 37238, "ELEMENT_SET_NO": 999, "REV_AT_EPOCH": 5143, "BSTAR": 0, "MEAN_MOTION_DOT": 0, "MEAN_MOTION_DDOT": 0}, "tle": {"line1": "1 37238U 10065B   25352.56704135  .00000000  00000+0  00000+0 0  9991", "line2": "2 37238   0.0241  60.7923 0002736 225.4994  71.2450  1.00271149 51439"}}, "geometry": {"type": "Point", "coordinates": [147.73198175983683, 0.02923949481461153]}}, {"type": "Feature", "properties": {"norad_id": 37392, "name": "INTELSAT 28 (IS-28)", "group": "intelsat", "lat": -0.7422325726606301, "lon": 50.13017532675669, "alt_km": 35798.32530327978, "timestamp": "2025-12-18T23:35:48.715110+00:00", "meta": {"OBJECT_NAME": "INTELSAT 28 (IS-28)", "OBJECT_ID": "2011-016A", "EPOCH": "2025-12-18T11:25:59.877408", "MEAN_MOTION": 1.00270518, "ECCENTRICITY": 0.00036749, "INCLINATION": 1.3387, "RA_OF_ASC_NODE": 84.9936, "ARG_OF_PERICENTER": 186.1961, "MEAN_ANOMALY": 315.9642, "EPHEMERIS_TYPE": 0, "CLASSIFICATION_TYPE": "U", "NORAD_CAT_ID": 37392, "ELEMENT_SET_NO": 999, "REV_AT_EPOCH": 5147, "BSTAR": 0, "MEAN_MOTION_DOT": -2.01e-06, "MEAN_MOTION_DDOT": 0}, "tle": {"line1": "1 37392U 11016A   25352.47638747 -.00000201  00000+0  00000+0 0  9998", "line2": "2 37392   1.3387  84.9936 0003674 186.1961 315.9642  1.00270518 51470"}}, "geometry": {"type": "Point", "coordinates": [50.13017532675669, -0.7422325726606301]}}]}